dd_id,ddname,organization_name,Care Of,name,website,location,email,phone,address,abbv,municipal,role
3686,163 Glen Street,163 Glen Street LLC,,163 Glen Street LLC,,"Somerville, MA",,,"48 Grove Street, Somerville, MA 02144",,0,
2856,170 West Broadway,"170 West Broadway, LLC",,170 West Broadway,http://www.170westbroadway.com/,"Boston, MA",,,"170 West Broadway, Boston, MA",,,
3366,171-172 Tremont Street,171 Tremont LLC,,171 Tremont LLC,,"Boston, MA",,,"171-172 Tremont Street, Boston, MA",,,
2838,1868 Massachusetts Ave.,1868 Mass Ave LLC,,,,,,,,,,
3060,The Residences on E at 205 E Street,201 E Street LLC,,,,"Weston, MA",,,"80 Loring Road, Weston, MA",,,
3535,232 Old Colony Ave,"232 Old Colony Avenue, LP",,,,"South Boston, MA",RSillery@citypointcapital.com,857 496 0425,"546 East Broadway South Boston, MA ",,,
2835,10 Essex St.,3 MJ Associates LLC,,,,"Boston, MA",,,"6 Beacon Steet, Boston, MA",,,
3335,320 Maverick St,320 Maverick St LLC,,,,"East Boston, MA",,,"320 Maverick St. East Boston, MA",,,
3369,120 West 4th Street,"33 A Street Development, LLC",,,,,,,,,,
333,35-36 West Newton Street,35 West Newton LLC,,,,,,,,,,
3403,4040 Washington Street,4040 Washington St. Dev. Trust,,,,,,,,,,
2909,411 D Street,"411 D Street Associates, LLC c/o Cresset Development",,,,,,,,,,
2965,422 River Street,"422 River Street, LLC",,,,,,,,,,
1890,44 Prince Street- 44 Prince Street,"44 Prince Street, LLC",,,,,,,,,,
2905,Rutherford Landing,463 Rutherford Ave LLC,,,,,,,,,,
2711,"CVS - 480-498 Concord Street, 7 Lindbergh",498 Concord Street Realty LLC,,,,,,,,,,
273,5168-5178 Washington Street,5168 Washington Street Realty Trust,,,,,,,,,,
2261,68 Beale Street,"68 Beale Street, LLC",,,,,,,,,,
297,687-697 Masschusetts Avenue,687-697 Masschusetts Avenue LLC,,,,,,,,,,
3570,69 A Street,"69 ASTMA Owner, LLC",,,,,,,,,,
1387,The Residences at Beaver Brook,6M Development,,,www.6mdev.com,,info@6mdev.com,,,,,
2933,70 Bremen Street,70 Bremen LLC,,,,,,,,,,
3631,771 Harrison Avenue (The Cosmopolitan),"761 Harrison Church, LLC",,,,,,,,,,
2970,815 East Fifth Street,815 East 5th Street LLC,,,,,,,,,,
2971,881-883 East Second Street,881 City Point LLC,,,,,,,,,,
3543,Lofts at 888 Tremont Street,888 Tremont Street LLC,,,,,,,,,,
2939,900 Beacon Street,900 Beacon Street Realty Trust,,,,,,,,,,
3513,933 East Second Street Residential Project,933 East second Street Realty Trust,,,,,,,,,,
3511,927-939 Boylston Street,939 Associates Ltd Partnership & Hamlen Company,,,,,,,,,,
2713,Rochester Crossroads,A.D. Makepeace Company,,,,,,,,,,
1643,The Cook Estate,Abbott homes - Cohasset LLC,,,,,,,,,,
1736,Concord Ave #563-603,AbodeZ Acorn LLC,,,www.abodez.com,"Cambridge, MA",,617.945.8100,"277 Broadway, Cambridge, MA",,,
3646,DECO (625 Thomas Burgin Parkway),"Cabot, Cabot & Forbes",,,ccfne.com,"Boston, MA",info@ccgne.com,(617) 603-4000,"185 Dartmouth St, Boston, MA",,,
3551,1789 Centre Street,Acre Development Corporation,,,,"Andover, MA",,,"9 Prides Circle, Andover MA",,,
3639,511 Dorchester Avenue,Ad Meliora,,,http://admeliora.us/index.html,"Boston, MA",,(857) 496-0279,"39 Damrell St, Boston, MA",,,
111,311 Summer Street,ADD Inc,,,http://www.addinc.com/,"Boston, MA",,(617) 234-3100,"311 Summer St, Boston, MA",,,
1981,Hampshire St. #168 (KFC),Agnosis Development LLC,,,,"Cambridge, MA",,617-799-2822,"138 Pleasant Street, Cambridge MA",,,
3684,97 Prospect Street,"Alan Peterson, Art of Building, LLC",,,,"Medford, MA",,,"7 Fairfield Street, Medford, MA",,,
2770,River Road,Albert Patenaude,,,,,,,,,,
1509,"Linskey Way, #41 (Alexandria)",Alexandria Real Estate,,,http://www.are.com/,"Pasadena, CA",corporateinformation@are.com,626.578.0777 (x1832),"385 East Colorado Boulevard, Suite 299, Pasadena, CA",,,
3353,South Bay Mixed-Use Town Center Project,"Allstate Road (EDENS), LLC",,,,,,,,,,
3674,Amazon Distribution Center - (201 Beecham Street),"Amazon.com, Inc.",,,www.amazon.com,"Seattle, WA",,(206) 266-1000,"410 Terry Ave. North, Seattle, WA",,,
174,Parcel P-7a,"Amherst Media Investors Boston, LLC",,,,,,,,,,
2951,1580 River Street,Anthony Ruscito,,,,,,,,,,
63,49-63 Melcher Street,"W2005 BWH II Realty, LLC",,,,"Boston, MA",,,"319 ""A"" Street, Front, 3rd Floor, Boston, MA",,,
1980,10 Glassworks Ave. (Maple Leaf Bldg.),"Archstone Development, now AvalonBay Communities",,,www.avaloncommunities.com/,"Boston, MA",,(617) 737-3470,"51 Sleeper St #750, Boston, MA",,,
3052,Bella Woods (East Street),Arnie Martel,,,,,,,,,,
3330,Artists for Humanity,Artists for Humanity,,,http://afhboston.org/,"Boston, MA",hgoodrow@afhboston.org,(617) 268-7620,"100 W 2nd St, Boston, MA",,,
1920,Learning Center at Bromley Heath- 33 Bickford Street,Associated Early Care & Education,,,,,,,,,,
3636,North Quincy MBTA Development,Atlantic Development / The Bozzuto Group,,,,"Greenbelt, MD",,866.698.7513,"6406 Ivy Lane, Suite 700, Greenbelt, MD",,,
3493,166 Pleasant Street,Atlas Boston,,,,,,,,,,
3609,The Whitwell,Atlas Investment Group / Brookline Development Corporation,,,http://www.atlasboston.com/,"Boston, MA",catherine.oneill@atlasboston.com,617-482-3006,"5 Fay Street #107B, Boston, MA",,,
2257,20 Fort Street,"Austin Realty Proprietorship South, LLC",,,,,,,,,,
785,Avalon Cohasset,Avalon Bay Communities,,,www.avaloncommunities.com/,"Boston, MA",,(617) 737-3470,"51 Sleeper St #750, Boston, MA",,,
3404,Allied Waste Systems Transfer Station,AWM,,,,,,,,,,
2101,The Coolidge at Sudbury,B'Nai B'rith Housing,,,,,,,,,,
3022,2 Martin Road,Bailey Custom Homes LLC,,,,,,,,,,
3206,134 Littleton Road - Retail Center,Barn Trust (Warren Palmer),,,,,,,,,,
3433,Bartlett Square II,"Bartlett Square Properties, LLC / Maple Hurst Builders, Inc. ",,,,"Roxbury Crossing, MA",chris@maplehurstbldrs.com,617-549-0793,"103 Terrace St, Roxbury Crossing, MA",,,
3082,3 Woodbury Lane,Bay Development LLC/ Bay Custom Homes LLC,,,,"Middelton, MA",,(978) 423-6666,"5 Devonshire Rd, Middleton MA",,,
2910,236 Mount Vernon Street - Bayside DoubleTree Hotel Expansion,Corcoran Jennison Company,Bayside Club Hotel,,http://www.corcoranjennison.com/index.html,"Dorchester, MA",ccook@corcoranjennison.com,(617) 822-7350,"150 Mt Vernon St, Dorchester, MA",,,
3468,BC High School Cadigan Hall Project,BC High School,,,www.bchigh.edu/home,"Boston, MA",,(617) 436-3900,"150 William T Morrissey Blvd, Boston, MA",,,
3374,Fort Point Place,Beacon Capital Partners,,,http://www.beaconcapital.com/,"Boston, MA",,(617) 457-0400,"200 State St, Boston, MA",,,
3140,Ames Shovel Works,Beacon Communities Development LLC,,,www.beaconcommunitiesllc.com/,"Boston, MA",info@BeaconCommunitiesLLC.com,(617) 574-1100,"2 Center Plz #700, Boston, MA",,,
3710,Beauport Hotel Gloucester,Beauport Gloucester LLC,,,beauportfinancial.com/,"Gloucester, MA",,(978) 283-0748,"3 Heritage Way Suite 2, ",,,
3153,Sumner Farms - Nashua Road,Bedford Woods LLC,,,,,,,,,,
2861,18 White St.,Ben Rogan,,,,,,,,,,
3573,Millbrook Lofts,"Berkeley Investments, Inc.",,,www.berkeleyinvestments.com/,"Boston, MA",Emahoney@berkinv.com,(617) 439-0088,"121 High St # 3, ",,,
3073,Seaport Square: Parcel B/C,Berkshire Group and WS Development,,,,,,,,,,
3453,BIDMC - Bowdoin Street Health Center,Beth Israel Deaconess Medical Center 2013 IMPA,,,,,,,,,,
100,275 Albany Street - The Troy,BH Normandy 275 LLC,,,,,,,,,,
1481,"Kendall St., #450 (CRP)",Biomed Realty Trust,,,biomedrealty.com/,"Cambridge, MA",,617.225.2440,"101 Main Street, 16th Floor, Cambridge 02142",,,
2089,"REI Solar Carport, 375 Cochituate Road",Blue Oak Energy,,,www.blueoakenergy.com/,"Davis, CA",information@blueoakenergy.com,(530) 747-2026,"1560 Drew Ave., Davis, CA",,,
3391,Staples (Roslindale),Bob Tildsley,,,,,,,,,,
3209,Boch Honda Car Dealership and Service Center,Boch Honda,,,,,,,,,,
2080,"TD Bank, 900 Edgell Road",Bohler Engineering,,,,,,,,,,
3000,Boston Childrens Hospital - Parking Garage Addition,Boston Children's Hospital 2013 IMPA,,,,"Boston, MA",,,"300 Longwood Ave, Boston, MA",,,
2889,Boston College - 2150 Commonwealth Ave Residence Hall,Boston College,,,www.bc.edu/,"Chestnut Hill, MA",,617-552-8000,"140 Commonwealth Ave, Chestnut Hill, MA",,,
2948,The Boston Conservatory - 132 Ipswich Street,Boston Conservatory,,,www.bostonconservatory.edu,"Boston, MA",,(617) 536-6340,"8 Fenway, Boston, MA",,,
3397,376 West Fourth Street,Boston Convention Center Hotel LLC,,,,"Boston, MA",,,"415 Summer St, Boston, MA",,,
3574,Seaport Square: Parcel H - Block H Offices,Boston Global Investors,,,bginvestors.com/,"Boston, MA",info@bginvestors.com,(617) 350-7577,"1 Post Office Square #1900, Boston, MA",,,
3436,Heritage Development Capital Improvements,Boston Housing Authority,,,www.bostonhousing.org/en/Home.aspx,"Boston, MA",Lori.Nelson@bostonhousing.org,(617) 988-4000,"52 Chauncy St, Boston, MA",BHA,,
3376,Boston Preparatory Charter Public School - Middle and High School,Boston Preparatory Charter Public School,,,www.bostonprep.org/,"Hyde Park, MA",,(617) 333-6688,"1286 Hyde Park Ave, Hyde Park, MA",Boston Prep,,
3704,Back Bay/South End Gateway Project,Boston Properties,,,www.bostonproperties.com/,"Boston, MA",,(617) 236-3300,"800 Boylston St, Boston, MA",BP,,
2249,1001 Hancock Street,Boston Property Development,,,www.bostonpropertydevelopment.com/,"Quincy, MA",info@mybostonproperty.com,617 282-1400 ,"125 Greenleaf Street, Quincy MA",,,
3705,SOBO Place,Boston Real Estate Capital,,,,"Boston, MA",,,"10 Post Office Square, 8th Floor, Boston MA",,,
2984,1065 Tremont Street,Boston Real Estate Collaborative,,,brec-llc.com/,"Boston, MA",,,"784 Tremont Street, Suite A, Boston, MA",,,
2953,55 India Street,Boston Residential Development LLC,,,,"Boston, MA",info@bostonresidentialgroup.com,617-424-0775,"221 Massachuesetts Ave, Suite 402, Boston, MA",,,
3120,Cottages in the Woods,Boston Road Homes LLC/Guthall,,,,,,,,,,
3001,BUMC - New Inpatient Building Phase 2,Boston Universisty Medical Center 2013 IMPA,,,,,,,,,,
3500,Boston University - East Campus Student Service Center,Boston University,,,www.bu.edu/,,,,,,,
87,BUMC - Moakley Cancer Center Addition,Boston University Medical Center 2013 IMPA,,Boston Medical Center Corporation,,"Boston, MA",,,"One Boston Medical Center Place, Boston, MA",,,
1536,"Cambridgepark Dr., #160-180",BRE/CPD,,,,,,,,,,
3211,Orchard Square Retail,Brian Lafferty,,,,,,,,,,
3487,Brigham and Women's Hospital - Additional BBF Floor,Brigham and Women's Hospital 2010 IMP,,,,"Boston, MA",,617-732-5100,"75 Francis Street, Boston, MA",,,
2894,Brighton Marine Health Center Residential Development,"Brighton Marine Health Center, Inc",,,,"Brighton, MA",,,"77 Warren St, Brighton, MA",,,
3475,375 Market Street,Brighton Park Associates LLC,,,,,,,,,,
3541,86 Dummer Street,Brookline Housing Authority / Colantonio Inc.,,,,,,,,,,
2915,Brookview House III,"Brookview House, Inc.",,,,,,,,,,
3501,Boston Teacher's Union Building Replacement Project,BTUHWF Building Corporation,,,,,,,,,,
3356,BUMC - Surgical Building,BU Medical Center,,,,,,,,,,
1479,Discovery Park #400/500/600/Garage B,Bulfinch Company,,,http://www.bulfinch.com/,Needham MA,,781.707.4000,"First Needham Place, 250 First Ave, Suite 200, Needham MA",,,
2901,380 Bunker Hill Street Charlestown Armory,C-Town Ventures LLC,,,,Wakefield MA,,,"39 Park Ave, Wakefield MA",,,
1439,"East Street Phase 1, #1-25 (Smith)",C.E. Smith/Archstone Dev,,,,,,,,,,
1521,"Temple St., #7-11 (YWCA)",Cambridge Housing Authority,,,www.cambridge-housing.org/default.asp,"Cambridge, MA",,617.864.3020,"362 Green Street, 3rd Floor, Cambridge, MA",CHA,1,
985,Grouse Hill,Capital Group Properties,,,www.capitalgroupproperties.com/,"Southborough, MA",,508-357-8825,"259 Turnpike Road, Suite 100, Southborough, MA",,,
2837,131 Harvard St.,Capstone Communities/ Sean Hope RE,,,capstonecommunities.com/,"Cambridge, MA",,,"165 Amory Street, Cambridge, MA",,,
3401,East Lenox St. & Washington St.,Caritas Communities,,,www.caritascommunities.org/,"Braintree, MA",,781.843.1242 ,"25 Braintree Hill Office Park, ",,,
2879,Belvidere/Dalton East,"Carpenter and Company, Inc",,,,"Cambridge, MA",,,"5 Bennett St, Cambridge, MA",,,
1461,"Water St., #22 (Mac-Grey)",Catamount Holdings LLC,,,,,,,,,,
1917,41 Westland Avenue- 41-43 Westland Avenue,Catamount Westland LLC,,,,,,,,,,
301,44 Burbank Street,Catamount Westland LLC,,,,,,,,,,
3571,197 Union Square,Cathartes,,,,,,,,,,
2957,The Serenity (105A South Huntington Avenue),Cedar Valley Development,,,,,,,,,,
3337,151 Liverpool Street,Cedarwood Development,,,,,,,,,,
286,Oxford Ping On Affordable Housing Project,CEDC Oxford Ping On LLC,,,,,,,,,,
443,Atlas Lofts, Mitchell Properties,Chelsea Neighborhood Developers,,mitchprop.com/,"Boston, MA ",,617.542.6500,"20 Park Plaza, Suite 833, Boston, MA ",,,
3394,Ridgecrest Village Apartments,Chestnut Hill Realty,,,chestnuthillrealty.com,"Chestnut Hill, MA ",answers@chestnuthillrealty.com,(617) 323-2100,"300 Independence Drive, Chestnut Hill, MA ",,,
3108,CHOICE Veterans Housing,Chelmsford Housing Authority,CHOICE (Choice Housing Opportunities for Intergenerational and Community Endeavors),,www.chelmsfordha.com/housing/senior-housing/choice/,"Chelmsford, MA",,978-256-7425,10 Wilson Street,,,
2028,Scituate Racquet & Fitness Club Swimming Pool,"Christopher Horne, Scituate Racquet & Fitness Club",,,,,,,,,,
2072,"The Learning Center for the Deaf, 848 Central Street",Christopher Huggins,,,,,,,,,,
2992,274 Southampton St,Circle Development,,,,,,,,,,
3382,Dudley Municipal Building,City of Boston,,,,,,,,,,
2859,"100 Putnam Ave. / MLK, JR. School",City of Cambridge,,,,,,,,,,
2876,339 D Street,"City Point Capital, LLC",,,citypointpartners.com/,Boston MA,,617.315.7832,"11 Elkins Street, Suite 470, Boston MA",,,
3581,38-42 Hyde Park Ave,City Realty Development,,,www.cityrealtyboston.com/acquisitions/,"Brookline, MA",,617-751-5119,"320 Washington St, Brookline, MA",,,
2836,34 - 36 Hampshire St.,CJ Griffen Enterprises,,,,,,,,,,
2376,Axis at Lakeshore,Claremont Companies,,,www.claremontcorp.com/,"Bridgewater, MA",info@claremontcorp.com,(508) 279-4300,"1 Lakeshore Center # 4, Bridgewater, MA",,,
2707,Clarks Hill - Neighborhood Cluster Development,"Clarks Hill Corporate Center, LLC",,,,"Framingham, MA",,580 875-1801,"1 Clarks Hill, Framingham, MA",,,
3687,90 Washington Street,"Cobble Hill Center, LLC",,,,,,,,,,
2921,Talbot Commons Phase One,Codman Square C.D.C.,,,www.csndc.com/,"Dorchester Center, MA",info@csndc.com,(617) 825-4224," 587 Washington St, Dorchester Center, MA",,,
2801,Colburn School,Coffman Realty Inc.,,,www.coffmanrealty.com/,"Brockton, MA",dav@coffmanrealty.com,(508) 588-0560,"1300 Belmont St # 3, Brockton, MA",,,
2030,Cohasset Plaza - Third Retail Building,"Cohasset Associates, Inc.",,,,,,,,,,
3446,The Savio,Coliseum Investment Group,,,,"Malden, MA",,(781) 322-0072,"20 Daniels St # 417, ",,,
3348,380 Stuart Street,Colliers International,,,www.colliers.com/en-us/us,"Seattle, WA",,206 695 4200,"601 Union Street, Suite 4800, Seattle, WA",,,
3109,Residences at Stony Brook Phase 2,Common Ground Development Corporation,,,www.commongroundhousing.org/,"Lowell, MA",,(978) 459 - 0551,"155 Merrich Street, 2nd Floor, Lowell, MA",,,
3009,Channel Center: One Channel Center Garage,Commonwealth Ventures,,,,,,,,,,
3484,371-401 D Street Development,Commonwealth Ventures/MCCA,,,,,,,,,,
209,Community Hope,Community Hope,,,,,,,,,,
214,Congregacion Leon de Juda Sanctuary,Congregacion Leon de Juda,,,leondejuda.org/es/node/3723,"Boston, MA",,(617) 541-4455,"68 Northampton St, Boston, MA",,,
2119,Old Colony Square @ Cohasset Station,Connell Development ,,,www.connellrealty.com/oldcolprop3.htm,"Berkeley Heights, NJ",realestateinquiry@connellco.com,908-673-3700,"200 Connell Drive, Berkeley Heights, NJ",,,
3124,Spaulding Hill Estates,Connell Real Estate Trust,,,www.connellrealestatenc.com/Web/AR728092/Home/index/,"Raeford, NC",TracyDRealtor@aol.com,(910) 875-8305,"501 Harris Avenue, Raeford, NC",,,
3383,E Street Self Storage,Conroy Development,,,www.conroydev.com/,"Stoughton, MA",info@conroydev.com,(781) 344-5656,"800 Technology Center Dr # 1, Stoughton, MA",,,
3540,Conservatory Lab Charter School,"Conservatory Lab Charter School Foundation, Inc",,,conservatorylab.org/,"Dorchester, MA",office@conservatorylab.org,(617) 254-8904,"2120 Dorchester Ave, Dorchester, MA",,,
1465,"Kendall St., #585 (CRP) / Constellation Theatre",Constellation,,,,,,,,,,
3107,Littleton Landing,Corbett Development,,,corbettdevelopmentinc.com/,Westford MA,epo3cdi@aol.com,(978) 392-2093,P.O. Box 4136 Westford MA,,,
3339,14 West Broadway,"Cornerstone Development, LLC",,,,,,,,,,
3564,Cote Village,Cote Village LLC,,,,,,,,,,
3685,181-197 Washington Street,"CPI-SCC, LCC",,,,"Somerville, MA",,,"337 Somerville Avenue, Somerville, MA",,,
3142,Winterberry Hills,Creative Homes,,,creativehci.com/,"Woodbury, MN",info@creativehci.com,651-289-6800,"707 Commerce Drive Suite 410, Woodbury, MN ",,,
3040,Liberty Wharf (Jimmy's Parcel E),Cresset Development,,,cressetgroup.com/,"Boston, MA ",info@cressetgroup.com ,617.624.9100,"120 Water St # 200, Boston, MA ",,,
638,Village at Taylor Pond,Criterion Development,,,www.criteriondp.com/,"Waltham, MA ",,781.890.5600,"1601 Trapelo Road, Suite 280, Waltham, MA ",cdp,,
991,Scituate Hill Commercial Subdivision,Crocker II Realty Trust,,,crockerpartners.com/,"Boca Raton, FL",,561.447.1801,"225 N.E. Mizner Blvd., #200, Boca Raton, FL",,,
3530,150 Seaport Blvd,Cronin Group,,,croningroupllc.com/,"Boston, MA",info@croningroupllc.com,617-737-2366,"250 Northern Ave #400, Boston, MA",,,
2113,575 Worcester Road/25 Prospect Street,Cross Point Associates,,,www.crosspointassociates.com/,"Waltham, MA",info@crosspointassociates.com,(508) 655-0505,"300 3rd Ave #2, Waltham, MA",,,
2233,Cross Roads Redevelopment,Crossroads Redevelopment LLC,,,,,,,,,,
2141,Renaissance Station,"Crugnale Properties, LLC",,,crugnaleproperties.com/,"Mansfield, MA",marco@crugnaleproperties.com,(508) 337-3045,"163 Rumford Ave # 401, ",,,
2715,"The TJX Companies, 770 & 740 Cochituate Road, 156 Speen Street",DACON,,,dacon1.com/,"Natick, MA ",,(508) 651-3600,"16 Huron Dr, Natick, MA ",,,
2247,3200 Washington Street,Dan Mangiacotti / Paul Iantosca,,,,,,,,,,
3648,45 Marion Street,Danesh Group,,,www.thedaneshgroup.com/,"Brookline, MA",info@thedaneshgroup.com,,"1368 Beacon Street Suite 109   Brookline, MA",,,
1089,Danforth Green (PUD),"Danforth Green, LLC",,,,,,,,,,
3554,Danker & Donohue Garage Renovations,Danker & Donohue Garage Corporation,,,,"Boston, MA",,(617) 536-3380,"341 Newbury St, Boston, MA",,,
279,255 Northampton Street,"David Goldman, Peter Georgantas",,,,,,,,,,
237,Stony Brook Farm Subdivision,David Raftery,,,,,,,,,,
2066,Abbott Lane,David Sukoff,,,,,,,,,,
1875,"Gateway Terrace- 0 Harrison Ave.,E. Berkeley St.,Wash, St.",Demetrios Dasco,,,,,,,,,,
3421,Deutsches Altenheim Addition,"Deutsches Altenheim, Inc.",,,,,,,,,,
3682,70 Prospect Street,DG Real Estate Development,,,,,,,,,,
2896,The Lancaster at 1501 Commonwealth Avenue,"Diamond Sinacori, LLC / Hart Development Associates",,,,,,,,,,
1184,The Villas at Vaughan Place,DiGiorgio & Messina,,,,"Middleton, MA",,(978) 739-4414,"2 Debush Ave, Middleton, MA",,,
2849,240 Sidney St.,Dinosaur Capital,,,www.dinosaurcap.com/Enter.html,"Boston, MA",,(617) 422-6224,"800 Boylston St, Boston, MA",,,
3489,Washington Village (235 Old Colony Ave),DJ Properties,,,,,,,,,,
3043,Wamesit Lanes,Donald MacLaren,,,,,,,,,,
2989,Quincy Heights,Dorchester Bay CDC,,,,,,,,,,
3557,Indigo Block Redevelopment,Dorchester Bay Economic Development Corporation,,,,,,,,,,
3128,Queset Commons,Douglas A. King,,,,,,,,,,
3136,Queset On he Pond,Douglas A. King,,,,,,,,,,
3629,410 West Broadway,Douglas R. George,,,,,,,,,,
1682,Metro at Wilmington Station,EA Fish Development,,,,,,,,,,
3506,Paris Village,East Boston CDC,,,,,,,,,,
351,Boston East (102-148 Border Street),"East Boston Community Development Corporation / Trinity Border Street, LLC / Trinity Financial",,,,,,,,,,
3505,202 Maverick Street,East Boston Management and Development LLC,,,,,,,,,,
105,East Boston Neighborhood Health Center,East Boston N'Hood Health Center,,,,,,,,,,
2960,621 East First Street,"East First Street, LLC",,,,,,,,,,
2898,39 A Street,East Way Development LLC,,,,,,,,,,
3584,Rock Chapel Marine,Eastern Salt Company,,,,,,,,,,
2967,Economy Plumbing and Heating Supply Company Expansion,Economy Plumbing & Heating Supply Company,,,,,,,,,,
187,Allied Bolt Bldg Rehab,Ed Nardi/Bill Curtis,,,,,,,,,,
3372,89 Brighton Avenue,Eden Properties,,,,,,,,,,
3373,89 Brighton Avenue,Eden Properties,,,,,,,,,,
3370,Goddard House,Eden Properties & Samuels and Associates,,,,,,,,,,
3679,235 Lowell Street,Edward Doherty,,,,,,,,,,
2807,Reynolds Farm,Edward J. Musto,,,,,,,,,,
3516,Edward W. Brooke Charter School,Edward W. Brooke Charter School,,,,,,,,,,
1537,1 Education St.,EFEKTA Inc.,,,,,,,,,,
2105,Pine Grove,Eligius Homes,,,,,,,,,,
2991,Westminster House,Elizabeth Stone House,,,,,,,,,,
3457,Washington Street Westminster House Project,"Elizabeth Stone House, Inc.",,,,,,,,,,
3106,Graniteville Woods,Emanouil Development,,,,,,,,,,
3144,EMD Serono - 45 Middlesex Turnpike,EMD Serono,,,,,,,,,,
3020,Emerson College - 1-3 Boylston Place,Emerson College,,,,,,,,,,
2969,728 East Broadway,Empire Realty Trust,,,,,,,,,,
3320,500 Boylston,Equity Office,,,,,,,,,,
294,Emerson Place - Charles River Park,Equity Residential,,,,,,,,,,
353,Garden Garage Site Redevelopment,Equity Residential,,,,,,,,,,
3478,45 Worthington Street,Equity Residential,,,,,,,,,,
3336,248 Dorchester Avenue,Evergreen Property Group,,,,,,,,,,
2865,22-26 West Broadway Street,Evergreen Property Group,,,,,,,,,,
2993,345 Harrison Street,F8345 Harrison Owner LLC,,,,,,,,,,
552,Assembly Row: Block 5,Federal Realty,,,,,,,,,,
3455,Landmark Center 2013,Fenway Enterprises LLC,,,,,,,,,,
3599,Homewood Suites Worcester,First Bristol Corporation,,,,,,,,,,
3600,Homewood Suites Worcester,First Bristol Corporation,,,,,,,,,,
3601,Homewood Suites Worcester,First Bristol Corporation,,,,,,,,,,
3602,Homewood Suites Worcester,First Bristol Corporation,,,,,,,,,,
3603,Homewood Suites Worcester,First Bristol Corporation,,,,,,,,,,
2955,Readville Yard 5,First Highland Management and Development Corp.,,,,,,,,,,
3044,First Street Assemblage,First Street LLC,,,,,,,,,,
1674,300 Massachusetts Ave (University Park Millenium Bldg),Forest City,,,,,,,,,,
215,120 Kingston (Dainty Dot),Forest City / Hudson Group North America,,,,,,,,,,
2186,The Commons at Forest Hills Station,Forest Hills Arborway LLC,,,,,,,,,,
2254,168 School Street,Fort Granite realty Corp.,,,,,,,,,,
1673,Museum of Fine Arts Shapiro Wing,Foster + Partners,,,,,,,,,,
3432,Envoy Hotel,FPCHotel LLC,,,,,,,,,,
2081,Juniper Hill School (MetroWest Jewish Day School). 29-30 Upper Joclyn Ave,"Framingham School Department and GLM Engineering Consultants, Inc",,,,,,,,,,
2085,"Barbieri School, 98-100 Dudley Road","Framingham School Department and GLM Engineering Consultants, Inc.",,,,,,,,,,
3413,23 Unity Street,"Francis, Douglas and Lisa Scire",,,,,,,,,,
3613,482 West Broadway,Frank E. Sorrenti,,,,,,,,,,
2904,Ropewalk Complex,"Frontier Enterprises, Inc.",,,,,,,,,,
3657,Fuller Site,Fuller Mixed Use Ventures LLC,,,,,,,,,,
2702,24 Blandin Ave,Galaxy Development,,,,,,,,,,
2259,39/47 Fayette Street,Galvin Development Company,,,,,,,,,,
3057,Merrimack Valley Pavilion - Family Entertainment Center at 2087 Main Street,Gary Brown,,,,,,,,,,
2875,338 Congress Street,Gate Residential LLC,,,,,,,,,,
3443,Genzyme Phase III Expansion,Genzyme,,,,,,,,,,
3677,85 Tileston St,Gerald Berberian,,,,,,,,,,
3368,Ten New (New Street Development),Gerding Edlen Development,,,,,,,,,,
3654,31 North Beacon,"Gerry Bickoff / Thirty-One North Beacon Street, LLC",,,,,,,,,,
109,Boston Renaissance Charter Public School,GLC Development,,,,,,,,,,
188,248 Meridian Street (Seville Boston Harbor),"Global Property Developers, LLC",,,,,,,,,,
1195,Settlers Lane,Goudeau LLC,,,,,,,,,,
3393,Greater Boston Food Bank,Greater Boston Food Bank,,,,,,,,,,
2106,40 Tall Pine Drive,Green Company,,,,,,,,,,
1218,Annisquam Woods,Greenbelt,,,,,,,,,,
3666,110 - 120 Tremont Street,Greg Antinelli,,,,,,,,,,
254,36 A street,Greg Donovan,,,,,,,,,,
2908,401 West First Street,Gregg Donovan,,,,,,,,,,
3426,755 Harrison Avenue,GTI Properties,,,,,,,,,,
1108,Edgewood Luxury Apartments,Gutierrez & Co.,,,,,,,,,,
3680,315 Highland Ave,"Gwen Simpkins, Theresa Nibi, 311 Highland LLC",,,,,,,,,,
1676,Maspenock Woods,Habitech Homes,,,,,,,,,,
2224,Highland Park III,Hallmark properties,,,,,,,,,,
2226,Hopkinton Village Center,"Hallmark Ventures, Inc.",,,,,,,,,,
2936,1085 Boylston Street,Hamilton Company Charitable Foundation,,,,,,,,,,
3367,Douglass Park,Hamilton Northeast Development,,,,,,,,,,
623,Bedford Marketplace,Hamlin Development,,,,,,,,,,
3598,Parcel A Hotel,Harbinger Development,,,,,,,,,,
2748,Maple Woods,Harborlight Community Partneres,,,,,,,,,,
2372,Lavender Lane,Harvard Green LLC,,,,,,,,,,
3589,Harvard University - Science and Engineering Complex,Harvard Planning & Project Management,,,,,,,,,,
3479,Harvard University - Baker Hall,Harvard University,,,,,,,,,,
3464,Harvard University - 28 Travis Street,Harvard University,,,,,,,,,,
3472,Harvard University - Tata Hall,Harvard University,,,,,,,,,,
3481,Harvard University - Chao Center,Harvard University,,,,,,,,,,
2811,Harvard University: 79 JFK St. - Kennedy School Expansion,Harvard University,,,,,,,,,,
2812,15 - 33 Richdale Ave.,Hathaway Lofts LLC,,,,,,,,,,
3070,Heatherwood,Hawthorne Development,,,,,,,,,,
2917,Herb Chambers at 75 Morrissey Blvd,Herb Chambers,,,,,,,,,,
3019,15 Lake Street,Herrick Development LLC/ Chris A. Herrick,,,,,,,,,,
1991,Gateway Center,"High Rock Development, LLC",,,,,,,,,,
753,Highland Estates,"Highland Estates LLC - (Anthony M. Nader, Developer)",,,,,,,,,,
269,Highland Park Phase II,Hightland Park Phase II Housing LLC,,,,,,,,,,
3593,"Cambridgepark Dr., #165 Phased",Hines Interests Limited,,,,,,,,,,
1734,Cambridgepark Dr. #165 Phase 1/2,Hines Interests Limited,,,,,,,,,,
3002,The Factory at 46 Wareham,"Holland Development, LLC",,,,,,,,,,
3084,5 Kassiotis Lane,Homeowner,,,,,,,,,,
339,Hope House,Hope House,,,,,,,,,,
2869,40 Malvern Street,HSH Realty Limited Partnership,,,,,,,,,,
3525,Humboldt Elderly Apartments,"Humboldt Elderly Apartments, LLC",,,,,,,,,,
1986,20 Child St. / North Point Bldg N,HYM Investments,,,,,,,,,,
1440,North Point Master Plan - Remainder (Guilford/S&S),HYM Investments/ Pan Am,,,,,,,,,,
3706,Canal Park,Intercontinental Real Estate Corporation,,,,,,,,,,
121,Islamic Cultural Center,Islamic Society of Boston,,,,,,,,,,
3028,49 North Liberty Street,J Nicosia Construction,,,,,,,,,,
222,The Residences at 50 West Broadway,Jack Brennan,,,,,,,,,,
1816,Laconia Condominiums- 1180-1200 Washington Street,Jack McLaughlin and Hacin+Associates,,,,,,,,,,
3458,75 Amory Avenue (Building K Jackson Square),Jackson Square Partners LLC,,,,,,,,,,
2978,70 Parker Hill Avenue,Jamaica View LLC,,,,,,,,,,
3122,Laughton Farms,Jamesco Development Co.,,,,,,,,,,
3517,"One Design Center Place and 21, 23 and 25 Drydock Avenue",Jamestown,,,,,,,,,,
3452,The Innovation and Design Building,Jamestown,,,,,,,,,,
2763,Emerson Village,JaRon,,,,,,,,,,
2762,Solar Array,JaRon,,,,,,,,,,
3660,33-61 Temple Street,"JDMD Owner, LLC",,,,,,,,,,
1937,"Jackson Square: Phase I, 225 Centre Street","Jeff B, Community Builders",,,,,,,,,,
3334,132 Chestnut Hill Avenue,Jewish Community Housing for the Elderly,,,,,,,,,,
239,244 Hanover Street,Joe Pernocello,,,,,,,,,,
2925,135 Bremen Street,Joe Ricupero & Michael Merullo,,,,,,,,,,
2897,Joseph M Smith Community Health Center,Joeseph M. Smith Community Health,,,,,,,,,,
3579,The Commons at Forest Hills (3593-3615 Washington St.),John M Corcoran Co / The Brennen Group,,,,,,,,,,
3663,MetroMark Apartments (3611 Washington Street),John M. Corcoran Company / The Brennan Group,,,,,,,,,,
3664,MetroMark Apartments (3611 Washington Street),John M. Corcoran Company / The Brennan Group,,,,,,,,,,
3149,Fox Run II - off Baldwin Road,Jones Brook Development,,,,,,,,,,
1502,"Charles St., #20",Jones Lang LaSalle,,,,,,,,,,
3507,99 Rivermoor Street,"Jordan Architects, Inc",,,,,,,,,,
2883,360 West Second Street,Joseph Taylor,,,,,,,,,,
3152,Aspen Apartments,"K & K Developers, Inc.",,,,,,,,,,
2886,425 Washington Street,Kandu Development LLC,,,,,,,,,,
118,Starboard Place (Parcel 39A),Kavanagh Advisory Group,,,,,,,,,,
3033,Innovation Square at Northern Avenue,Kavanagh Advisory Group LLC,,,,,,,,,,
2902,Chain Forge Building 105,Kavanagh Advisory Group LLC,,,,,,,,,,
1531,"Massachusetts Ave., #1924 (Kaya Hotel)",Kaya-Ka,,,,,,,,,,
2847,43 Nashua Road,KB Properties,,,,,,,,,,
3604,Collins Mansion Condominiums,KEMS Corporation,,,,,,,,,,
2079,"The Musterfields at Concord Street, 2-72 Pearl Harbor Road",Kevin Bumpus,,,,,,,,,,
3205,Kimball Farm,Kimball Farm,,,,,,,,,,
2968,KIPP Academy Boston Charter School,"KIPP Boston Fund, Inc.",,,,,,,,,,
3388,LA Fitness Club (West Roxbury),LA Fitness International LLC,,,,,,,,,,
3389,LA Fitness Club (West Roxbury),LA Fitness International LLC,,,,,,,,,,
3317,425 LaGrange Street,"LaGrange AMA Realty Ventures, LLC",,,,,,,,,,
3678,82 Highland Ave,LaRosa Development Corporation,,,,,,,,,,
3402,34-36 St. James Street in Roxbury,Larosa Development Corporation,,,,,,,,,,
2435,116-158 Essex Street,LCB Senior Living,,,,,,,,,,
2848,135 Athens Street,Leah Popielarski,,,,,,,,,,
3526,40 Thorndike Street,Leggat McCall,,,,,,,,,,
3618,Harrison Albany Block,Leggat McCall Properties,,,,,,,,,,
3467,Olmsted Green Lena Park CDC and Brooke Charter Sch,Lena Park CDC/Brooke Charter School,,,,,,,,,,
159,Clippership Wharf,Lend Lease,,,,,,,,,,
3650,Clippership Wharf (25-65 Lewis Street),Lend Lease Development / Noddle Island Limited Partnership,,,,,,,,,,
2234,Hopkinton Retirement Residence,Lenity Architecture,,,,,,,,,,
1984,Massachusetts Ave. #1797-1801 (Art Institute),Lesley University,,,,,,,,,,
3378,Lewis Wharf,"Lewis Wharf Investors, LLC",,,,,,,,,,
1913,Liberty Mutual- 157 Berkley Street,Liberty Mutual,,,,,,,,,,
3395,West Square,Lincoln Properties Company,,,,,,,,,,
3512,53 State Street - Minor Mod. PDA .14,Lincoln Properties Company,,,,,,,,,,
85,316-322 Summer Street,Lincoln Properties Company,,,,,,,,,,
2767,Alexander Estates - Alexander Way,"Loftis Dunstable LLC - Concord, MA -Alexander Wolfram",,,,,,,,,,
156,Silver Building,Longbay Management,,,,,,,,,,
2710,33 Central,Lynn EDIC,,,,,,,,,,
3047,305 Webster Ave.,M & H Realty Trust,,,,,,,,,,
2651,Madison Tropical Parcel 10,Madison Park Development Corp,,,,,,,,,,
3408,Hibernian Hall,Madison Park Development Corp,,,,,,,,,,
1881,Haley House-Interfaith Apartments,Madison Park Development Corp,,,,,,,,,,
3199,Dudley Greenville Rental Housing,Madison Park Development Corp,,,,,,,,,,
3661,Dewitt Community Center,Madison Park Development Corporation,,,,,,,,,,
2907,399 Congress Street,"Madison Seaport Holdings, LLC",,,,,,,,,,
3064,Victor Drive Redevelopment,Marc Ginsburg,,,,,,,,,,
3048,1438 Main Street,Marc Ginsburg,,,,,,,,,,
3416,47 Waltham Street,Margret Gardner,,,,,,,,,,
3477,Immaculate Conception,Mario Nicosia,,,,,,,,,,
3419,525-527 East Second Street Condominiums,Mark Carroll,,,,,,,,,,
3440,Massachusetts General Hospital - Building for 3rd Century,Massachusetts General Hospital 2006 IMP,,,,,,,,,,
3441,Massachusetts General Hospital - Museum and History Center,Massachusetts General Hospital 2011 IMPA,,,,,,,,,,
2952,MATCH School Hyde Park,MATCH School Foundation,,,,,,,,,,
757,Manor Way Circle Subdivision,"Matt Shanley, Rhonda Kallman",,,,,,,,,,
2027,South Shore Autowash,"Matthew Murmes, So. Shore Auto Wash, LLC",,,,,,,,,,
2700,24 Mt. Vernon St.,Mayo Group,,,,,,,,,,
2701,129-167 Broad St.,Mayo Group,,,,,,,,,,
2593,Salem Intermodal Station,MBTA,,,,,,,,,,
2932,415 McClellan Highway,MC-EB Realty LLC,,,,,,,,,,
2810,Cambridgepark Dr. #88,McKinnon Company,,,,,,,,,,
1226,Cape Ann Forge,McNiff Company,,,,,,,,,,
1205,The Village At Magnolia Shores,McNiff Company,,,,,,,,,,
2987,Melnea Hotel and Residences,"Melnea Partners, LLC",,,,,,,,,,
259,25 Miner Street,Meredith Properties,,,,,,,,,,
2916,45 West 3rd Street,Metric Corporation / Geoffrey Caraboolad,,,,,,,,,,
2095,"La Cantina Restaurant, 904, 911, 920 & 921 Waverly Street",MetroWest Engineering,,,,,,,,,,
2964,630 East Second Street,Michael Indresano,,,,,,,,,,
3083,16 Upton Hills Lane,Middleton Real Estate Group LLC,,,,,,,,,,
3086,18 Upton Hills Lane,Middleton Real Estate Group LLC,,,,,,,,,,
3643,Midwood Downtown Crossing Project,Midwood Investment & Development,,,,,,,,,,
3644,Midwood Downtown Crossing Project,Midwood Investment & Development,,,,,,,,,,
117,1047 Commonwealth Avenue,Mike Argiros,,,,,,,,,,
324,81-87 Fairmount Ave,Mike Tallon,,,,,,,,,,
2231,Lumber St. - West Main St. & Hopkinton Mews,"Mill Creek Residential Trust, LCC",,,,,,,,,,
3634,839 Beacon Street,Miner Realty Inc.,,,,,,,,,,
2641,Mission Hill Parcel 25,Mission Hill N'hood Housing Service,,,,,,,,,,
2979,Maria Sanchez House,"Mission Hill Neighborhood Housing Services, Inc.",,,,,,,,,,
3591,"Vassar Street, #60 (MIT Nano Lab, Building 12)",MIT,,,,,,,,,,
1519,"Main St., #610 (MITIMCO/Phase 2)",MIT,,,,,,,,,,
3527,610 Main Street North,MIT / Redgate,,,,,,,,,,
208,700 Harrison Avenue,Mitchell Properties LLC,,,,,,,,,,
2954,57 L Street,Moawed Properties LLC,,,,,,,,,,
2103,Johnson Farm,Moss Development,,,,,,,,,,
3463,75 Brainerd Road,Mount Vernon Company,,,,,,,,,,
3474,60-66 Brainerd Road,Mount Vernon Company,,,,,,,,,,
3089,55 School Street,Mr. Han Soo Lho/ Bailey Custom Homes LLC,,,,,,,,,,
3091,12 Old Forest Street,Mr. John C Fitzgerald/ Stephen P. Bedard,,,,,,,,,,
3088,57 School Street,Mr. John L Rudenauer/ Bailey Custom Homes LLC,,,,,,,,,,
3087,51 School Street,Mr. Nicholas Hantzis /Ariston Custom Homes Inc.,,,,,,,,,,
3085,47 School Street,Mr. Nicholas Hantzis/ Ariston Custom Homes Inc.,,,,,,,,,,
2253,157 Hancock Street,Murphy Twin Development LLC,,,,,,,,,,
2972,902 East Second Street,"N&P Associates, LLC",,,,,,,,,,
2854,154 West Second Street,"N&P Associates, LLC",,,,,,,,,,
1887,440 Commercial Street- 440-448 Commerical Street,"N&P Associates, LLC",,,,,,,,,,
648,Market Street at Lynnfield,"National Dev't, WS Development",,,,,,,,,,
3358,AC Hotel South End,National Development,,,,,,,,,,
1923,Ink Block- 300 Harrison Avenue,National Development,,,,,,,,,,
2885,375-399 Chestnut Hill Ave - Cleveland Circle Cinema,National Development,,,,,,,,,,
3610,The District Burlington,National Development,,,,,,,,,,
3611,The District Burlington,National Development,,,,,,,,,,
3542,Chroma Cambridge,National Development / Collegiate Asset Management / Morris & Morse Company,,,,,,,,,,
3203,Bridges at Westford,National Development/Epoch Senior Living,,,,,,,,,,
3569,Residences at 125 Guest Street - Boston Landing,"NB Development Group / HYM Investment Group, LLC",,,,,,,,,,
225,Nu Life Development,NDC of Grove Hall,,,,,,,,,,
2706,Union Corners,Neighborhood Development Associates,,,,,,,,,,
2709,Suffolk Court,Neighborhood Development Associates,,,,,,,,,,
616,Gateway Residences on Washington,Neighborhood Development Associates,,,,,,,,,,
3456,Coppersmith Village Development,Neighborhood of Affordable Housing,,,,,,,,,,
2255,178-186 E. Howard Street,Neighborworks of Southern Mass.,,,,,,,,,,
2995,600 Harrison Avenue,New Atlantic Development,,,,,,,,,,
3520,Boston Landing New Balance Headquarters,New Balance,,,,,,,,,,
192,Parcel 24,New Boston Dev. Partners,,,,,,,,,,
3427,135 Shawmut Avenue,New Boston Ventures,,,,,,,,,,
1593,50 St. Peter Street,New Boston Ventures,,,,,,,,,,
3605,945 East Broadway,New Boston Ventures,,,,,,,,,,
321,263-265 Northampton St.,New Boston Ventures LLC & PEG Prop.,,,,,,,,,,
2891,Boston Landing,New Brighton Landing LLC,,,,,,,,,,
3407,Palmer Street,New Covenant Christian Church,,,,,,,,,,
3447,17 Court Street Renovation,New England Center Homeless Vets,,,,,,,,,,
3377,New England Conservatory - Student Life and Performance Center,New England Conservatory,,,,,,,,,,
2800,University Station,New England Development,,,,,,,,,,
346,44-64 Terrace Street,New Homes Real Estate Development,,,,,,,,,,
3210,Asphalt Plant at 540 Groton Road,Newport Materials,,,,,,,,,,
2118,"Ford's Hill Estate, Nixon Road",Nexum Development,,,,,,,,,,
3647,The Tremont (32 Second Ave),Nordblom Company,,,,,,,,,,
2982,Haymarket Hotel - Parcel 9,Normandy Real Estate Partners,,,,,,,,,,
3444,Test - test of 1681,Normandy Real Estate Partners,,,,,,,,,,
3445,Test - test of 1681,Normandy Real Estate Partners,,,,,,,,,,
3521,North Bennet Street School,North Bennet Street School,,,,,,,,,,
3659,Harbor Village (206 Main Street),North Shore Community Development Coalition,,,,,,,,,,
3480,Northeastern University - Interdisciplinary Science & Engineering Ctr,Northeastern University,,,,,,,,,,
3587,Northeastern University - Columbus Avenue Student Housing,Northeastern University / American Campus Communities,,,,,,,,,,
3585,The Merc,Northland Investment Corporation,,,,,,,,,,
95,368 Congress Street,Norwich Partners of Boston LLC,,,,,,,,,,
1919,40 Warren Street,Nova Partners LLC,,,,,,,,,,
2052,Massachusetts Ave. #181 (Novartis),Novartis,,,,,,,,,,
223,Kasanof Bakery - 233 Blue Hill Ave,Nuestra Comunidad,,,,,,,,,,
2986,Dudley Crossing,Nuestra Comunidad Development Corporation,,,,,,,,,,
3529,O'Connor Way,O’Connor Way LLC,,,,,,,,,,
1532,"Massachusetts Ave., #1991-2013 (St James)",Oaktree development,,,,,,,,,,
3058,Ocean State Job Lot - 553 Main Street,Ocean State Job Lot,,,,,,,,,,
2373,Isabella Lane,Onivoi LLC,,,,,,,,,,
2966,637 East First Street,"Oranmore Enterprises, LLC",,,,,,,,,,
3451,609 East Fourth Street Condominiums,"Oranmore Enterprises, LLC",,,,,,,,,,
3544,The Residences at 100 A Street,"Oranmore Enterprises, LLC",,,,,,,,,,
3449,Tremont Crossing (P-3),"P-3 Partners, LLC",,,,,,,,,,
171,23 Bradston Street,Pacific International Investment,,,,,,,,,,
3110,Tadmuck Meadows II,Page and Trahan Companies,,,,,,,,,,
260,Court Square Press Phase II (MacAllen Bldg),"Pappas Industrial Parks, Inc.",,,,,,,,,,
3068,South Boston Boutique Hotel,"Pappas Industrial Parks, Inc.",,,,,,,,,,
272,Paradigm at Blakemore Project,Paradigm Associates,,,,,,,,,,
2293,50 Home Depot Drive,Paragon Outlets Plymouth LLC,,,,,,,,,,
3688,20 Taft Hill Park,"Parkhead Develoment, LLC",,,,,,,,,,
3338,1505 Commonwealth Avenue,"Partners Properties, LLC",,,,,,,,,,
2931,41-43 Saratoga Street,Pat Buonopane,,,,,,,,,,
2934,917 Bennington Street,Pat Buonopane,,,,,,,,,,
2930,319-327 Chelsea Street,Pat Buonopane,,,,,,,,,,
3655,85-93 Willow Court,Patrick Cibotti,,,,,,,,,,
3162,Reservoir Crossing,Peabody Properties,,,,,,,,,,
2374,VA housing,Peabody Properties,,,,,,,,,,
2983,4236 Washington Street,Peregrine Group LLC,,,,,,,,,,
3630,1943 Dorchester Avenue,Peregrine Group LLC,,,,,,,,,,
3510,20 Sussex Street,Perpetual Real Estate,,,,,,,,,,
2863,190-209 West Second,Peter Zagorianakos,,,,,,,,,,
347,5-10 St. George Street,Peter Zagorianakos,,,,,,,,,,
2864,2 H Street,Peter Zagorianakos,,,,,,,,,,
3387,307 Dorchester Avenue/FW Webb,PFP Associates LPS,,,,,,,,,,
3553,47 Webster,Philip Frattaroli,,,,,,,,,,
292,Hyde Park Ave PMDI Artists,Phillip Manker,,,,,,,,,,
1595,135 Lafayette Street - St. Joseph's Redevelopment,Planning Office for Urban Affairs,,,,,,,,,,
1847,48 Boylston Street,Planning Office for Urban Affairs / Saint Francis House,,,,,,,,,,
2927,175 Orleans Street,Porterfrank Realty LLC,,,,,,,,,,
3105,Princeton Westford Apartment Homes,Princeton Properties,,,,,,,,,,
2858,219 Monsignor O'Brien Highway,Pro Con Inc,,,,,,,,,,
331,Washington and E. Berkeley St.,Project Place Gatehouse LLC,,,,,,,,,,
197,Penny Savings,PSB Investments LLC,,,,,,,,,,
2235,Legacy Farms (Pulte),Pulte Homes of New England LLC,,,,,,,,,,
2942,488 Dorchester Avenue,"R & B Investments, LLC",,,,,,,,,,
3412,Harrison Commons - Former BC high,R.F. Walsh Company,,,,,,,,,,
3411,174 Hampden Street,R&R Sales Company,,,,,,,,,,
3208,Cornerstone Square,RA Ventures,,,,,,,,,,
3212,4 Lan Drive,RA Ventures,,,,,,,,,,
3126,27 Broadway,RA Ventures,,,,,,,,,,
3365,533 Washington Street,Rafi Properties LLC,,,,,,,,,,
319,309 Old Colony Condominiums,Ralph Depari/James Cuccinata,,,,,,,,,,
3314,192 Raymond St,Raymond Street Realty Trust,,,,,,,,,,
2742,Washington/Dodge Street,RCG,,,,,,,,,,
1201,Penguin Hall,Recovery Centers of America,,,,,,,,,,
3010,Congress Square,Related Beal,,,,,,,,,,
71,Parcel 1B (MTA) Bullfinch Triangle (The Merano),Related Beal,,,,,,,,,,
64,100 Arlington,Related Cos. / Congress Group,,,,,,,,,,
2309,Casa Bella,RJF Homes,,,,,,,,,,
3133,RK Easton Village,RK Centers,,,,,,,,,,
2021,Quonahassit Trail,Robert & Maria Williams,,,,,,,,,,
3491,2875 Washington Street,Rogerson Communities,,,,,,,,,,
3492,2875 Washington Street,Rogerson Communities,,,,,,,,,,
3442,648-656 Saratoga Street,Rosario Limone,,,,,,,,,,
3552,Portside at East Pier - Phase 2,Roseland Property Company,,,,,,,,,,
3406,47 Thorndike Street,Rosie's Place,,,,,,,,,,
3418,Sophia Snow House,Roxbury Home for Aged Women/Sophia Snow House,,,,,,,,,,
3323,Roxbury Latin,Roxbury Latin,,,,,,,,,,
30,Mass Mental Health Center,Roxbury Tenants of Harvard,,,,,,,,,,
3508,Roxbury Tenants of Harvard Community Center,RTH,,,,,,,,,,
2961,3383-3389 Washington Street,"RTP Washington Street, LLC",,,,,,,,,,
3092,15 Zaloga Way,Ryebrooke LLC/ Bailey Custom Homes LLC,,,,,,,,,,
3081,108 Forest Street,S&K Homes LLC/ Scott J. Audette,,,,,,,,,,
3090,106 Forest Street,S&K Homes LLC/ Scott J. Audette,,,,,,,,,,
2092,115 Beaver Street,"Safeway Services, Inc.",,,,,,,,,,
2944,Hotel Commonwealth Expansion,Sage Hospitality,,,,,,,,,,
3628,Thorndike Mill,Sal Lupoli,,,,,,,,,,
3184,Harvard University (Allston): Barry's Corner,Samuel & Associates,,,,,,,,,,
2943,Fenway Point,Samuels & Associates,,,,,,,,,,
3129,Highlands Plaza,Samuels & Associates,,,,,,,,,,
3130,Highlands Plaza - Phase 2,Samuels & Associates,,,,,,,,,,
3485,Barry's Corner Residential & Retail Commons,Samuels & Associates,,,,,,,,,,
250,99 Tremont Street,Saracen Properties,,,,,,,,,,
3333,40 Fisher Avenue,"Savage Properties, LLC",,,,,,,,,,
3617,1470 Tremont Street,"Savage Properties, LLC",,,,,,,,,,
3486,1081 River Street,Savvy Acquisitions LLC,,,,,,,,,,
1762,The Parker and Terrace Street Development,Sebastian Mariscal Studio,,,,,,,,,,
2868,37 North Beacon Street,Sebastian Mariscal Studio,,,,,,,,,,
3434,Showa Boston Institute for Language and Culture 3r,Showa Boston,,,,,,,,,,
3322,1650 Commonwealth Avenue (The Aberdeen),"Sixteen Fifty Commonwealth, LLC",,,,,,,,,,
3428,Watermark Seaport (Seaport Square Block K),Skanska,,,,,,,,,,
2937,1350 Boylston Street,"Skanska Commercial Development, Inc",,,,,,,,,,
3431,Seaport Square Parcel L1,"Skanska Commercial Development, Inc",,,,,,,,,,
3612,121 Seaport,Skanska USA Commercial Development,,,,,,,,,,
3707,151-155 Norfolk Street,SkyBridge Properties LLC,,,,,,,,,,
3665,24 Elm Way,SMC Management Corp.,,,,,,,,,,
2887,458-460 Washington Street,SMC Partners LLC,,,,,,,,,,
2842,104 Canal Street Hotel Development,"Somnath Hospitality, LLC",,,,,,,,,,
2913,367 Neponset Ave,Sousa Design Architects,,,,,,,,,,
2852,148 Dorchester Avenue,South Boston LLC,,,,,,,,,,
3483,148-152 Dorchester Avenue Phase II,South Boston LLC,,,,,,,,,,
3049,Patriot Homes,South Boston NDC/Caritas,,,,,,,,,,
3635,370-380 Harrison Ave,"South End 10, LLC / South End 11, LLC",,,,,,,,,,
3425,Logan Square,Southwest Boston CDC,,,,,,,,,,
415,The Residences at Fairmount Station,Southwest Boston CDC & Codman Square NDC,,,,,,,,,,
3549,1235-1237 VFW Parkway,SOVAD LLC,,,,,,,,,,
851,Legacy Farms (Alta) - Wood partners,SP5 Wood Alta Legacy Farms. LLC,,,,,,,,,,
3340,45 West Third Street,Spaulding & Slye Investments,,,,,,,,,,
2962,3521-3529 Washington Street,SSG Development / New Boston Ventures,,,,,,,,,,
3583,4945 Washington Street,St Mary’s Broad St LLC,,,,,,,,,,
3471,St Elizabeth's Hospital - Connel ED Urgent Care Building,St. Elizabeth's Hospital,,,,,,,,,,
3555,4945 Washington,St. Mary's Broad St. LLC,,,,,,,,,,
3405,208 Dudley Street,Stanley and Barbara Byfield,,,,,,,,,,
3415,Convention Center Hotel,Starwood/Joe Fallon,,,,,,,,,,
1901,Emerson College Colonial Residences- 98-108 Boylston Street,Steffian Bradley Architects and Suffolk Construction,,,,,,,,,,
2025,The Cohasset Village Town Homes,Stephen J. Cleary; Cochrane Hill LLC,,,,,,,,,,
483,Shops at Suffolk Downs,"Sterling Suffolk Racecourse, LLC",,,,,,,,,,
3399,30 Hazelwood,Steven Karris,,,,,,,,,,
3145,Tanglewood Estates,Stonebridge Homes,,,,,,,,,,
3127,8 Brookside,StonyBrooksideLLC,,,,,,,,,,
2026,Stop & Shop Gas Facility,"Stop & Shop Supermarket Companies, LLC",,,,,,,,,,
2221,Peloquin Estates,Summit Realty Trust,,,,,,,,,,
2604,Riverview Place,Symes Associates,,,,,,,,,,
3424,327-337 Summer Street and 319 A Street,Synergy Investments LLC,,,,,,,,,,
2911,25 Morrissey Boulevard,Synergy Investments LLC,,,,,,,,,,
177,Target South Bay Expansion,Target Corporation,,,,,,,,,,
2716,Normandy Real Estate - 15 and 16 Pleasant Street Connector,TBD,,,,,,,,,,
2719,Uptown Shopping Plaza - 444/480 Franklin Street,TBD,,,,,,,,,,
2725,39 Howard Street,TBD,,,,,,,,,,
2726,Avida Bank - 222 & 236 Cochituate Road,TBD,,,,,,,,,,
2729,11 Main Street,TBD,,,,,,,,,,
93,1000 Washington Street,"Teraview Investments, LLC",,,,,,,,,,
2083,"Genzyme, 68, 74-80 New York Ave",Tetra Tech,,,,,,,,,,
2698,2-8 New York Avenue,Tetra Tech,,,,,,,,,,
2114,Genzyme 74-80,Tetra Tech Rizzo,,,,,,,,,,
49,Landmark Center North Addition,The Abbey Group,,,,,,,,,,
3476,1282 Boylston Street (McDonald's),The Abbey Group,,,,,,,,,,
2870,450 Cambridge Street,The Arcand Family/Allston LLC,,,,,,,,,,
3041,Lovejoy Wharf 131 Beverly Street,"The Beal Companies, LLP",,,,,,,,,,
3329,Harmon Apartments (Boston Home Group),The Boston Home Inc & Affirmative Investments Inc,,,,,,,,,,
3545,Atrium Center,The Bulfinch Companies,,,,,,,,,,
320,Cheriton Heights Senior Housing,The Community Builders,,,,,,,,,,
3392,Charlesview Redevelopment,The Community Builders,,,,,,,,,,
2990,The Clarion at 311 Blue Hill Avenue,"The Community Builders, Inc.",,,,,,,,,,
3619,The Residences at Hooper Mansion,The Congress Group,,,,,,,,,,
3465,Gate of Heaven Residential Development,The Cronin Group LLC,,,,,,,,,,
3466,Gate of Heaven Residential Development,The Cronin Group LLC,,,,,,,,,,
3321,386-388 Market Street,"The Cronin Group, LLC",,,,,,,,,,
3645,Waterside Place: Phase IB,The Drew Company,,,,,,,,,,
2996,80 East Berkeley Street,"The Druker Company, LTD.",,,,,,,,,,
3509,45-53 Hereford Street,"The Fairfield Group, Inc",,,,,,,,,,
3380,Fan Pier Parcel H,The Fallon Company,,,,,,,,,,
3031,Fan Pier: Parcel F / One Marina Park Drive*,The Fallon Company,,,,,,,,,,
3429,Fan Pier Parcel I,The Fallon Company,,,,,,,,,,
3430,50 Liberty (Fan Pier Parcel C),The Fallon Company,,,,,,,,,,
3029,22 Liberty (Fan Pier),The Fallon Company,,,,,,,,,,
3607,100 Northern Avenue,The Fallon Company,,,,,,,,,,
2260,600R Crown Colony,The Flatley Co,,,,,,,,,,
2339,Parc at Medfield,The Gatehouse Group,,,,,,,,,,
3204,Red Hat,The Gutierrez Co.,,,,,,,,,,
3207,Westford Tech Park West,The Gutierrez Co.,,,,,,,,,,
3148,Village Crossing - Bridge Street and Treble Cove Road,The Gutierrez Company,,,,,,,,,,
2814,Cambridgepark Dr. #130,The Hanover Company,,,,,,,,,,
3313,140 Cambridge Park Drive,The Hanover Company,,,,,,,,,,
3590,140 Cambridgepark Drive,The Hanover Company,,,,,,,,,,
2256,18-22 Mechanic Street,The Heritage Companies of Quincy,,,,,,,,,,
3519,Saint Augustine's at 205 E Street,"The Hillery on E, LLC",,,,,,,,,,
2994,477-481 Harrison Avenue,The Holland Companies,,,,,,,,,,
2704,The Lynn Home for Young Women,The Lynn Home for Young Women Inc.,,,,,,,,,,
332,1100 VFW Parkway (Gordon's Wood),The Mayo Group,,,,,,,,,,
3354,37-43 North Beacon Street,The Mount Vernon Company,,,,,,,,,,
3355,37-43 North Beacon Street,The Mount Vernon Company,,,,,,,,,,
3534,530 Western Ave,"The Mount Vernon Company, Inc",,,,,,,,,,
2899,Skating Club of Boston,The Skating Club of Boston,,,,,,,,,,
3572,181 Washington Street,"The Somerville Community Corporation, Inc and A&M Realty Trust",,,,,,,,,,
2976,1467 Tremont Street,The Trellis Group,,,,,,,,,,
3448,Winsor School Project,The Winsor School,,,,,,,,,,
3240,Chalifoux Building,Thomas Monahan,,,,,,,,,,
3018,19 Peaslee Circle,Thomas N. Katsapetses,,,,,,,,,,
3016,17 Peaslee Circle,Thomas N. Katsapetses,,,,,,,,,,
3606,Pier 4: Phase 3,Tishman Speyer,,,,,,,,,,
3055,Pier 4: Phase 2,Tishman Speyer,,,,,,,,,,
2024,Estates at Cohassets,Toll MA Land Limited Partnership,,,,,,,,,,
283,18 Robert Street,Tony Papathanasiou,,,,,,,,,,
2204,2-14 Taber Street Phase I,Toula Politis,,,,,,,,,,
2205,2-14 Taber Street Phase II,Toula Politis,,,,,,,,,,
2091,"A Street Pump Station, 67 A Street",Town of Framingham,,,,,,,,,,
3066,Tewksbury Memorial High School (320 Pleasant Street),Town of Tewksbury,,,,,,,,,,
994,Landham Crossing,Trask Development,,,,,,,,,,
987,Villages at Old County Road,Trask Development,,,,,,,,,,
326,1486 Tremont Street,Trellis Group,,,,,,,,,,
3381,1004-1012 Tremont Street,"Tremont Street Development, LLC",,,,,,,,,,
2213,1004-1008 Tremont Street,"Tremont Street Development, LLC",,,,,,,,,,
3396,17 Morley Street,Trenholm and Roma Turner,,,,,,,,,,
3341,117-127 Heath Street,Triad Alpha Partners LLC (TRIAD),,,,,,,,,,
2914,Ashmont TOD 2 (1971-1977 Dorchester Avenue),Trinity Ashmont Two Limited Partnership,,,,,,,,,,
127,"One Canal (Parcel 2A,B&C Bullfinch Triangle)",Trinity Financial,,,,,,,,,,
3237,Parcels 8 & 9,Trinity Financial,,,,,,,,,,
164,Ashmont Station TOD Development,Trinity Financial,,,,,,,,,,
3439,Mattapan Heights Five Chapter 121A Project,Trinity Financial,,,,,,,,,,
2985,35 Northampton Street,Trinity Financial,,,,,,,,,,
3514,The Studios at St. Peters,"Trinity Green Development, LLC",,,,,,,,,,
3515,The Studios at St. Peters,"Trinity Green Development, LLC",,,,,,,,,,
3578,40 Trinity Place,Trinity Stuart LLC,,,,,,,,,,
2761,Heritage Estates,Tulley/McGovern,,,,,,,,,,
3683,92-96 Prospect Street,"Two Squares, LLC",,,,,,,,,,
1987,33 Cottage Park Ave.,Tyler Court Limited Partnership,,,,,,,,,,
3236,University Crossing,Umass Lowell,,,,,,,,,,
2754,Reedy Meadow,Unknown,,,,,,,,,,
1872,Egleston Crossing- 3033/3089 Washington Street,Urban Edge,,,,,,,,,,
3390,Hyde-Blakemore Project,Urban Edge,,,,,,,,,,
3361,Walker Park Apartments,Urban Edge Housing Corporation,,,,,,,,,,
1503,"First St., #159",Urban Spaces,,,,,,,,,,
2839,"Massachusetts Ave. , #1971 (Miso Block Redevelopment)",Urban Spaces,,,,,,,,,,
2888,5 Washington Street,Urban Spaces LLC,,,,,,,,,,
3582,119-159 Hyde Park Ave,Urbanica and The Community Builders,,,,,,,,,,
2938,50 Symphony Road,"Urbanica, Inc",,,,,,,,,,
3522,74 Highland Street,"Urbanica, Inc",,,,,,,,,,
422,Parcel U,"Urbanica, Inc",,,,,,,,,,
3580,Jamaica Plain Branch Library (12 Sedgwick St.),Utile Architects,,,,,,,,,,
3518,Parcel X-46,Vahid Nickpour,,,,,,,,,,
3151,Ava Estates - 90 Rangeway Road,Value Homes LLC,,,,,,,,,,
2928,245 Sumner Street,Velkor Realty Trust,,,,,,,,,,
3409,1522 VFW Parkway,VFW Realty Trust/Jeff Roache,,,,,,,,,,
2720,Lifetime Fitness - 432/490 Old Connecticut Path,VHB,,,,,,,,,,
150,4238 Washington Street,Victor Kotslopoulos,,,,,,,,,,
2922,The Four Corners-Upper Washington Project,"Viet-AID, Inc.",,,,,,,,,,
3420,23-25 and 33-35 Grantley St Condominium Project,Vincent C. Marino,,,,,,,,,,
3417,Roslindale Commons Condominium,Vincent C. Marino,,,,,,,,,,
2090,"35, 39, 43, 47 Frederick Street",VTT Management,,,,,,,,,,
3069,Walmart expansion,Walmart,,,,,,,,,,
2959,3371 Washington Street and 197-203 Green Street,Walter Craven,,,,,,,,,,
3586,33-39 Huntington Avenue,Walter Huntington LLC,,,,,,,,,,
3347,35 South Huntington Avenue,Walter Huntington LLC,,,,,,,,,,
2956,59 Temple Place,"Walton Oxford Temple Owner, LLC",,,,,,,,,,
3435,Warren Green,Warren Green LLC,,,,,,,,,,
234,301 Columbus Avenue,Wasserman Real Estate Capital,,,,,,,,,,
3488,"31 Orleans Street, East Boston",Waypoint Companies,,,,,,,,,,
2872,61-83 Braintree Street,Waypoint Companies,,,,,,,,,,
3438,Forest Hills Parcel V&W,WCI Corporation,,,,,,,,,,
3497,Wentworth - Flanagan Campus Center at Beatty Hall,Wentworth Institute of Technology,,,,,,,,,,
3496,Wentworth - 500 Huntington Avenue PDA,Wentworth Institute of Technology 2013 PDA,,,,,,,,,,
3494,Wentworth - Student Apartments (525 Huntington Ave),Wentworth Institute of Technology 2011 IMP,,,,,,,,,,
2981,Wentworth: New Sweeney Field Athletics Complex,Wentworth Institute of Technology 2011 IMP,,,,,,,,,,
3498,Wentworth - Ira Allen Building Addition,Wentworth Institute of Technology 2011 IMP,,,,,,,,,,
3125,Summer Village (Seasonal),Wescon Inc.,,,,,,,,,,
3111,Aldrich Farms,"Wescon, Inc.",,,,,,,,,,
3121,Heritage Way,"Wescon, Inc.",,,,,,,,,,
3131,Tyngsborough Commons (50 Westford Road),"Westford Road Development, LLC",,,,,,,,,,
3437,90 Smith Street - Basilica Court,Weston Associates,,,,,,,,,,
3470,Wheelock College - Resource Center,Wheelock College 2012 Second IMPA,,,,,,,,,,
3709,180 Eastern Avenue,Whitewood Ventures,,,,,,,,,,
2402,Elm Street Village,Windover,,,,,,,,,,
3386,Castle Square,Winn Development,,,,,,,,,,
3422,Nazing Court Apartments,Winn Development,,,,,,,,,,
3239,130 John Street,WinnDevelopment,,,,,,,,,,
3423,Dunmore Place,Women's Institute for Housing & Eco. Dev.,,,,,,,,,,
3319,64 Allandale,Wonder Group LLC,,,,,,,,,,
3649,Everly Apartments (14 Audubon Rd),Wood Partners,,,,,,,,,,
3213,Workers Credit Union,Workers Credit Union,,,,,,,,,,
769,Derby Street Shoppes,WS Development,,,,,,,,,,
3577,Wynn Everett,Wynn Casinos,,,,,,,,,,
3592,"Msgr. O'Brien Highway, #262 (The Ivy Residences)",YIHE Group,,,,,,,,,,
2841,262 Monsignor Obrien Highway,YIHE Group,,,,,,,,,,
3006,West Roxbury YMCA,YMCA of Greater Boston,,,,,,,,,,
3469,YMCA Renovation,YMCA of Greater Boston,,,,,,,,,,
3241,Abbot Mill,Yule Development,,,,,,,,,,
